{{Infobox Planet  
| name = 347 Pariana
| image = 
| caption = 
| discovery=yes | physical_characteristics = yes | bgcolour=#FFFFC0
| discovery_ref = 
| discoverer = [[奥古斯特·沙卢瓦|奥古斯特·沙卢瓦]]
| discovery_site = [[尼斯|尼斯]]
| discovered =  1892年11月28日
| mp_name = 347
| alt_names = 1892 Q
| named_after = 
| mp_category=[[小行星带|主带小行星]]
| orbit_ref = <ref>[http://ssd.jpl.nasa.gov/sbdb.cgi?sstr=347 347 Pariana]</ref>
| epoch = 2011年8月27日
| semimajor= 2.610918978579206AU
| perihelion=2.178042825753875AU
| aphelion=3.043795131404537[[天文单位|AU]]
| eccentricity =0.1657945560075905	
| period =1540.949901937626[[日|地球日]]<br>4.22[[年|地球年]] 
| inclination=11.68054172464048[[角度|°]]
| asc_node=85.57026893481991°	
| arg_peri=86.36165987171293°
| mean_anomaly=307.5045456310619°
| avg_speed=18.43 km/s
 | dimensions=	51.36千米
 | mass=
 | density=
 | surface_grav=
 | escape_velocity=
 | rotation=4.0529[[小时|小时]]
 | spectral_type=[[M-型小行星|M]]
 | magnitude=
 | abs_magnitude=8.90
 | albedo=0.1845
 | single_temperature=
}}
'''小行星347'''（'''347 Pariana'''），是由[[法国|法国]][[天文学家|天文学家]][[奥古斯特·沙卢瓦|奥古斯特·沙卢瓦]]于1892年11月28日在法国[[尼斯|尼斯]]发现的[[小行星带|主带]][[小行星|小行星]]。

小行星347的命名依据不明。

== 参考资料 ==
{{Reflist}}

{{Minor Planet Number|(346)[[小行星346|小行星346]]|(348)[[小行星348|小行星348]]}}
{{小天體}}

[[Category:小行星带天体|Category:小行星带天体]]
[[Category:1892年发现的小行星|Category:1892年发现的小行星]]
[[Category:M-型小行星|Category:M-型小行星]]